NORAD_CAT_ID,OBJECT_NAME,OBJECT_TYPE,EPOCH,MEAN_MOTION,ECCENTRICITY,INCLINATION,RA_OF_ASC_NODE,ARG_OF_PERICENTER,MEAN_ANOMALY,BSTAR,MEAN_MOTION_DOT,MEAN_MOTION_DDOT,TLE_LINE0,TLE_LINE1,TLE_LINE2,SEMIMAJOR_AXIS,PERIOD,APOGEE,PERIGEE,DECAYED
55957.0,STARLINK-5884,PAYLOAD,2024-05-03 11:49:41,14.98339166,0.0003117,69.9989,166.9325,269.1569,90.9233,9.4557e-05,1.036e-05,0.0,0 STARLINK-5884,1 55957U 23037AV  24124.49283720  .00001036  00000-0  94557-4 0  9998,2 55957  69.9989 166.9325 0003117 269.1569  90.9233 14.98339166 63336,6950.165,96.106,574.196,569.863,0.0
55957.0,STARLINK-5884,PAYLOAD,2024-05-03 19:50:21,14.98331907,0.000308,69.9989,166.0902,270.229,89.8516,6.0155e-06,-2.1e-07,0.0,0 STARLINK-5884,1 55957U 23037AV  24124.82664298 -.00000021  00000-0  60155-5 0  9990,2 55957  69.9989 166.0902 0003080 270.2290  89.8516 14.98331907 63382,6950.187,96.107,574.193,569.911,0.0
55957.0,STARLINK-5884,PAYLOAD,2024-05-04 05:27:11,14.98323686,0.000256,70.0001,165.0831,261.302,98.7849,-6.8294e-05,-9.08e-06,0.0,0 STARLINK-5884,1 55957U 23037AV  24125.22721162 -.00000908  00000-0 -68294-4 0  9995,2 55957  70.0001 165.0831 0002560 261.3020  98.7849 14.98323686 63781,6950.212,96.107,573.857,570.298,0.0
55957.0,STARLINK-5884,PAYLOAD,2024-05-04 11:51:43,14.98318214,0.0002928,69.9992,164.4083,268.7316,91.3508,-0.00013629,-1.718e-05,0.0,0 STARLINK-5884,1 55957U 23037AV  24125.49425833 -.00001718  00000-0 -13629-3 0  9991,2 55957  69.9992 164.4083 0002928 268.7316  91.3508 14.98318214 63823,6950.229,96.108,574.129,570.059,0.0
55957.0,STARLINK-5884,PAYLOAD,2024-05-05 05:29:12,14.98326984,0.0002845,69.9994,162.5571,267.4405,92.6428,-0.00013428,-1.695e-05,0.0,0 STARLINK-5884,1 55957U 23037AV  24126.22861606 -.00001695  00000-0 -13428-3 0  9996,2 55957  69.9994 162.5571 0002845 267.4405  92.6428 14.98326984 63939,6950.202,96.107,574.045,570.09,0.0
55957.0,STARLINK-5884,PAYLOAD,2024-05-05 11:53:44,14.98323793,0.000284,69.9994,161.8839,267.7693,92.314,-0.00012359,-1.567e-05,0.0,0 STARLINK-5884,1 55957U 23037AV  24126.49565883 -.00001567  00000-0 -12359-3 0  9993,2 55957  69.9994 161.8839 0002840 267.7693  92.3140 14.98323793 63635,6950.212,96.107,574.051,570.103,0.0
55957.0,STARLINK-5884,PAYLOAD,2024-05-05 19:54:25,14.98325214,0.000295,69.9991,161.0422,270.0232,90.0589,-3.5582e-05,-5.17e-06,0.0,0 STARLINK-5884,1 55957U 23037AV  24126.82945669 -.00000517  00000-0 -35582-4 0  9992,2 55957  69.9991 161.0422 0002950 270.0232  90.0589 14.98325214 63687,6950.208,96.107,574.123,570.022,0.0
55957.0,STARLINK-5884,PAYLOAD,2024-05-06 05:31:13,14.98320375,0.0003077,69.9986,160.0311,267.9943,92.0864,0.00013003,1.458e-05,0.0,0 STARLINK-5884,1 55957U 23037AV  24127.23001653  .00001458  00000-0  13003-3 0  9990,2 55957  69.9986 160.0311 0003077 267.9943  92.0864 14.98320375 64088,6950.223,96.108,574.226,569.949,0.0
55957.0,STARLINK-5884,PAYLOAD,2024-05-06 11:55:45,14.98323286,0.0003079,69.9987,159.3579,268.142,91.9386,0.0001311,1.471e-05,0.0,0 STARLINK-5884,1 55957U 23037AV  24127.49705611  .00001471  00000-0  13110-3 0  9997,2 55957  69.9987 159.3579 0003079 268.1420  91.9386 14.98323286 63788,6950.214,96.107,574.219,569.939,0.0
55957.0,STARLINK-5884,PAYLOAD,2024-05-06 19:56:25,14.98328142,0.0003105,69.9986,158.5164,268.0641,92.0163,0.00013842,1.559e-05,0.0,0 STARLINK-5884,1 55957U 23037AV  24127.83085365  .00001559  00000-0  13842-3 0  9991,2 55957  69.9986 158.5164 0003105 268.0641  92.0163 14.98328142 64177,6950.199,96.107,574.222,569.906,0.0
55957.0,STARLINK-5884,PAYLOAD,2024-05-07 11:57:45,14.98335412,0.0003126,69.9986,156.833,267.8693,92.2109,0.00013902,1.566e-05,0.0,0 STARLINK-5884,1 55957U 23037AV  24128.49844799  .00001566  00000-0  13902-3 0  9993,2 55957  69.9986 156.8330 0003126 267.8693  92.2109 14.98335412 63933,6950.176,96.107,574.214,569.869,0.0
55957.0,STARLINK-5884,PAYLOAD,2024-05-08 11:59:46,14.98335332,0.0003105,69.9987,154.3081,268.0238,92.0565,2.1793e-05,1.67e-06,0.0,0 STARLINK-5884,1 55957U 23037AV  24129.49984747  .00000167  00000-0  21793-4 0  9996,2 55957  69.9987 154.3081 0003105 268.0238  92.0565 14.98335332 64425,6950.176,96.107,574.199,569.883,0.0
55957.0,STARLINK-5884,PAYLOAD,2024-05-08 18:24:18,14.98336031,0.0003122,69.9986,153.6348,267.9268,92.1534,-4.063e-06,-1.42e-06,0.0,0 STARLINK-5884,1 55957U 23037AV  24129.76688640 -.00000142  00000-0 -40630-5 0  9996,2 55957  69.9986 153.6348 0003122 267.9268  92.1534 14.98336031 64123,6950.174,96.107,574.209,569.869,0.0
55957.0,STARLINK-5884,PAYLOAD,2024-05-09 10:25:39,14.98337992,0.0003098,69.9987,151.9516,267.7966,92.2838,-4.3664e-05,-6.14e-06,0.0,0 STARLINK-5884,1 55957U 23037AV  24130.43448268 -.00000614  00000-0 -43664-4 0  9995,2 55957  69.9987 151.9516 0003098 267.7966  92.2838 14.98337992 64223,6950.168,96.106,574.186,569.88,0.0
55957.0,STARLINK-5884,PAYLOAD,2024-05-10 04:03:08,14.98332048,0.0003091,69.9986,150.1,268.0231,92.0574,-2.7485e-05,-4.21e-06,0.0,0 STARLINK-5884,1 55957U 23037AV  24131.16884293 -.00000421  00000-0 -27485-4 0  9997,2 55957  69.9986 150.1000 0003091 268.0231  92.0574 14.98332048 64674,6950.187,96.107,574.2,569.903,0.0
55957.0,STARLINK-5884,PAYLOAD,2024-05-10 10:27:40,14.98332242,0.0003084,69.9987,149.4267,268.2631,91.8175,-2.296e-05,-3.67e-06,0.0,0 STARLINK-5884,1 55957U 23037AV  24131.43588216 -.00000367  00000-0 -22960-4 0  9995,2 55957  69.9987 149.4267 0003084 268.2631  91.8175 14.98332242 64376,6950.186,96.107,574.194,569.908,0.0
55957.0,STARLINK-5884,PAYLOAD,2024-05-11 04:05:08,14.98330931,0.0003049,69.9987,147.5753,268.1736,91.9074,-4.0113e-05,-5.72e-06,0.0,0 STARLINK-5884,1 55957U 23037AV  24132.17024263 -.00000572  00000-0 -40113-4 0  9992,2 55957  69.9987 147.5753 0003049 268.1736  91.9074 14.98330931 64823,6950.19,96.107,574.174,569.936,0.0
55957.0,STARLINK-5884,PAYLOAD,2024-05-11 18:30:21,14.98333067,0.0002404,70.0,146.0602,269.2215,90.8668,4.7147e-05,4.7e-06,0.0,0 STARLINK-5884,1 55957U 23037AV  24132.77107855  .00000470  00000-0  47147-4 0  9996,2 55957  70.0000 146.0602 0002404 269.2215  90.8668 14.98333067 64579,6950.183,96.107,573.719,570.378,0.0
55957.0,STARLINK-5884,PAYLOAD,2024-05-12 05:43:17,14.98327053,0.0002695,69.9997,144.8808,264.7962,95.2889,-1.9128e-05,-3.21e-06,0.0,0 STARLINK-5884,1 55957U 23037AV  24133.23840217 -.00000321  00000-0 -19128-4 0  9999,2 55957  69.9997 144.8808 0002695 264.7962  95.2889 14.98327053 64983,6950.202,96.107,573.94,570.194,0.0
55957.0,STARLINK-5884,PAYLOAD,2024-05-12 10:31:42,14.98323015,0.0002777,69.999,144.3759,265.1935,94.8907,-5.5179e-05,-7.51e-06,0.0,0 STARLINK-5884,1 55957U 23037AV  24133.43868625 -.00000751  00000-0 -55179-4 0  9997,2 55957  69.9990 144.3759 0002777 265.1935  94.8907 14.98323015 64678,6950.214,96.107,574.01,570.149,0.0
55957.0,STARLINK-5884,PAYLOAD,2024-05-12 18:32:23,14.98312833,0.0002828,69.9994,143.5343,263.276,96.8077,-1.4314e-07,-9.5e-07,0.0,0 STARLINK-5884,1 55957U 23037AV  24133.77249290 -.00000095  00000-0 -14314-6 0  9994,2 55957  69.9994 143.5343 0002828 263.2760  96.8077 14.98312833 65064,6950.246,96.108,574.077,570.145,0.0
55957.0,STARLINK-5884,PAYLOAD,2024-05-13 10:33:44,14.98304275,0.0002862,69.999,141.8513,272.4022,87.681,2.1544e-05,1.64e-06,0.0,0 STARLINK-5884,1 55957U 23037AV  24134.44010355  .00000164  00000-0  21544-4 0  9993,2 55957  69.9990 141.8513 0002862 272.4022  87.6810 14.98304275 64828,6950.272,96.109,574.127,570.148,0.0
55957.0,STARLINK-5884,PAYLOAD,2024-05-14 04:11:12,14.98322276,0.0003073,69.9984,140.0001,274.1281,85.9527,4.3342e-05,4.24e-06,0.0,0 STARLINK-5884,1 55957U 23037AV  24135.17445469  .00000424  00000-0  43342-4 0  9991,2 55957  69.9984 140.0001 0003073 274.1281  85.9527 14.98322276 65272,6950.217,96.107,574.218,569.946,0.0
55957.0,STARLINK-5884,PAYLOAD,2024-05-14 10:35:45,14.98324497,0.00031,69.9984,139.3271,274.5286,85.5519,5.5681e-05,5.71e-06,0.0,0 STARLINK-5884,1 55957U 23037AV  24135.44149426  .00000571  00000-0  55681-4 0  9997,2 55957  69.9984 139.3271 0003100 274.5286  85.5519 14.98324497 64972,6950.21,96.107,574.229,569.92,0.0
55957.0,STARLINK-5884,PAYLOAD,2024-05-14 17:00:17,14.98325047,0.0003027,69.9989,138.6534,278.2939,81.7877,0.000115,1.279e-05,0.0,0 STARLINK-5884,1 55957U 23037AV  24135.70853403  .00001279  00000-0  11500-3 0  9990,2 55957  69.9989 138.6534 0003027 278.2939  81.7877 14.98325047 65018,6950.208,96.107,574.177,569.969,0.0
55957.0,STARLINK-5884,PAYLOAD,2024-05-15 05:49:21,14.98324979,0.0003141,69.9982,137.3069,275.9296,84.1505,0.00018734,2.143e-05,0.0,0 STARLINK-5884,1 55957U 23037AV  24136.24261344  .00002143  00000-0  18734-3 0  9994,2 55957  69.9982 137.3069 0003141 275.9296  84.1505 14.98324979 65431,6950.208,96.107,574.256,569.89,0.0
55957.0,STARLINK-5884,PAYLOAD,2024-05-15 10:37:45,14.98328583,0.0003174,69.9981,136.8021,275.0755,85.0042,0.00020019,2.296e-05,0.0,0 STARLINK-5884,1 55957U 23037AV  24136.44289078  .00002296  00000-0  20019-3 0  9998,2 55957  69.9981 136.8021 0003174 275.0755  85.0042 14.98328583 65126,6950.197,96.107,574.268,569.856,0.0
55957.0,STARLINK-5884,PAYLOAD,2024-05-16 05:51:21,14.98341766,0.0003157,69.9982,134.7822,274.7955,85.2843,0.00011862,1.323e-05,0.0,0 STARLINK-5884,1 55957U 23037AV  24137.24400167  .00001323  00000-0  11862-3 0  9997,2 55957  69.9982 134.7822 0003157 274.7955  85.2843 14.98341766 65581,6950.157,96.106,574.216,569.827,0.0
55957.0,STARLINK-5884,PAYLOAD,2024-05-16 09:03:37,14.98343453,0.0003136,69.9983,134.4454,275.9415,84.1386,0.00013244,1.488e-05,0.0,0 STARLINK-5884,1 55957U 23037AV  24137.37751914  .00001488  00000-0  13244-3 0  9998,2 55957  69.9983 134.4454 0003136 275.9415  84.1386 14.98343453 65261,6950.151,96.106,574.196,569.837,0.0
55957.0,STARLINK-5884,PAYLOAD,2024-05-16 17:04:18,14.98334919,0.0003076,69.9983,133.6033,275.0622,85.0186,0.0001493,1.689e-05,0.0,0 STARLINK-5884,1 55957U 23037AV  24137.71132178  .00001689  00000-0  14930-3 0  9997,2 55957  69.9983 133.6033 0003076 275.0622  85.0186 14.98334919 65310,6950.178,96.107,574.181,569.905,0.0
